[{"OBJECT_NAME":"NAPA-1","OBJECT_ID":"2020-061BA","EPOCH":"2026-03-09T22:41:35.210688","MEAN_MOTION":15.57045946,"ECCENTRICITY":0.00010032,"INCLINATION":97.2581,"RA_OF_ASC_NODE":140.6709,"ARG_OF_PERICENTER":121.0916,"MEAN_ANOMALY":239.0438,"EPHEMERIS_TYPE":0,"CLASSIFICATION_TYPE":"U","NORAD_CAT_ID":46320,"ELEMENT_SET_NO":999,"REV_AT_EPOCH":30624,"BSTAR":0.00073314827,"MEAN_MOTION_DOT":0.00053161,"MEAN_MOTION_DDOT":0},{"OBJECT_NAME":"STARLINK-1695","OBJECT_ID":"2020-062E","EPOCH":"2026-03-10T00:00:02.999808","MEAN_MOTION":15.54321965,"ECCENTRICITY":0.00056929,"INCLINATION":53.0499,"RA_OF_ASC_NODE":335.097,"ARG_OF_PERICENTER":127.3586,"MEAN_ANOMALY":314.4015,"EPHEMERIS_TYPE":0,"CLASSIFICATION_TYPE":"U","NORAD_CAT_ID":46329,"ELEMENT_SET_NO":999,"REV_AT_EPOCH":591,"BSTAR":0.0015936543,"MEAN_MOTION_DOT":0.00107125,"MEAN_MOTION_DDOT":0}]
